{"type": "FeatureCollection", "features": [ {"type": "Feature", "properties": {"norad_id": 65077, "name": "CREW DRAGON 11", "group": "stations", "lat": -8.539051697386297, "lon": 19.617160221024964, "alt_km": 418.24534451721956, "timestamp": "2025-12-02T13:52:16.082910+00:00", "meta": {"OBJECT_NAME": "CREW DRAGON 11", "OBJECT_ID": "2025-166A", "EPOCH": "2025-12-02T02:12:50.598720", "MEAN_MOTION": 15.49237019, "ECCENTRICITY": 0.00036389, "INCLINATION": 51.6314, "RA_OF_ASC_NODE": 195.1903, "ARG_OF_PERICENTER": 193.8265, "MEAN_ANOMALY": 166.2625, "EPHEMERIS_TYPE": 0, "CLASSIFICATION_TYPE": "U", "NORAD_CAT_ID": 65077, "ELEMENT_SET_NO": 999, "REV_AT_EPOCH": 214, "BSTAR": 0.00017380747, "MEAN_MOTION_DOT": 9.217e-05, "MEAN_MOTION_DDOT": 0}, "tle": {"line1": "1 65077U 25166A   25336.09225230  .00009217  00000+0  17381-3 0  9998", "line2": "2 65077  51.6314 195.1903 0003638 193.8265 166.2625 15.49237019  2145"}}, "geometry": {"type": "Point", "coordinates": [19.617160221024964, -8.539051697386297]}}, {"type": "Feature", "properties": {"norad_id": 65304, "name": "DRAGON CRS-33", "group": "stations", "lat": -8.539052200364234, "lon": 19.617160630841205, "alt_km": 418.2453445714618, "timestamp": "2025-12-02T13:52:16.082920+00:00", "meta": {"OBJECT_NAME": "DRAGON CRS-33", "OBJECT_ID": "2025-186A", "EPOCH": "2025-12-02T02:12:50.598720", "MEAN_MOTION": 15.49237019, "ECCENTRICITY": 0.00036389, "INCLINATION": 51.6314, "RA_OF_ASC_NODE": 195.1903, "ARG_OF_PERICENTER": 193.8265, "MEAN_ANOMALY": 166.2625, "EPHEMERIS_TYPE": 0, "CLASSIFICATION_TYPE": "U", "NORAD_CAT_ID": 65304, "ELEMENT_SET_NO": 999, "REV_AT_EPOCH": 11, "BSTAR": 0.00017380747, "MEAN_MOTION_DOT": 9.217e-05, "MEAN_MOTION_DDOT": 0}, "tle": {"line1": "1 65304U 25186A   25336.09225230  .00009217  00000+0  17381-3 0  9993", "line2": "2 65304  51.6314 195.1903 0003638 193.8265 166.2625 15.49237019   113"}}, "geometry": {"type": "Point", "coordinates": [19.617160630841205, -8.539052200364234]}}, {"type": "Feature", "properties": {"norad_id": 65586, "name": "PROGRESS-MS 32", "group": "stations", "lat": -8.539052904533566, "lon": 19.61716120458406, "alt_km": 418.2453446474028, "timestamp": "2025-12-02T13:52:16.082934+00:00", "meta": {"OBJECT_NAME": "PROGRESS-MS 32", "OBJECT_ID": "2025-204A", "EPOCH": "2025-12-02T02:12:50.598720", "MEAN_MOTION": 15.49237019, "ECCENTRICITY": 0.00036389, "INCLINATION": 51.6314, "RA_OF_ASC_NODE": 195.1903, "ARG_OF_PERICENTER": 193.8265, "MEAN_ANOMALY": 166.2625, "EPHEMERIS_TYPE": 0, "CLASSIFICATION_TYPE": "U", "NORAD_CAT_ID": 65586, "ELEMENT_SET_NO": 999, "REV_AT_EPOCH": 27, "BSTAR": 0.00017380747, "MEAN_MOTION_DOT": 9.217e-05, "MEAN_MOTION_DDOT": 0}, "tle": {"line1": "1 65586U 25204A   25336.09225230  .00009217  00000+0  17381-3 0  9996", "line2": "2 65586  51.6314 195.1903 0003638 193.8265 166.2625 15.49237019   272"}}, "geometry": {"type": "Point", "coordinates": [19.61716120458406, -8.539052904533566]}}, {"type": "Feature", "properties": {"norad_id": 65616, "name": "CYGNUS NG-23", "group": "stations", "lat": -8.539053407511151, "lon": 19.617161614399983, "alt_km": 418.2453447016469, "timestamp": "2025-12-02T13:52:16.082944+00:00", "meta": {"OBJECT_NAME": "CYGNUS NG-23", "OBJECT_ID": "2025-208A", "EPOCH": "2025-12-02T02:12:50.598720", "MEAN_MOTION": 15.49237019, "ECCENTRICITY": 0.00036389, "INCLINATION": 51.6314, "RA_OF_ASC_NODE": 195.1903, "ARG_OF_PERICENTER": 193.8265, "MEAN_ANOMALY": 166.2625, "EPHEMERIS_TYPE": 0, "CLASSIFICATION_TYPE": "U", "NORAD_CAT_ID": 65616, "ELEMENT_SET_NO": 999, "REV_AT_EPOCH": 22, "BSTAR": 0.00017380747, "MEAN_MOTION_DOT": 9.217e-05, "MEAN_MOTION_DDOT": 0}, "tle": {"line1": "1 65616U 25208A   25336.09225230  .00009217  00000+0  17381-3 0  9994", "line2": "2 65616  51.6314 195.1903 0003638 193.8265 166.2625 15.49237019   221"}}, "geometry": {"type": "Point", "coordinates": [19.617161614399983, -8.539053407511151]}}, {"type": "Feature", "properties": {"norad_id": 65729, "name": "DRAGONFLY", "group": "stations", "lat": 31.21640278258625, "lon": -21.058686777765562, "alt_km": 359.59645586755414, "timestamp": "2025-12-02T13:52:16.082954+00:00", "meta": {"OBJECT_NAME": "DRAGONFLY", "OBJECT_ID": "1998-067XH", "EPOCH": "2025-12-01T23:30:55.051776", "MEAN_MOTION": 15.67818176, "ECCENTRICITY": 0.00064903, "INCLINATION": 51.6258, "RA_OF_ASC_NODE": 190.6875, "ARG_OF_PERICENTER": 211.6532, "MEAN_ANOMALY": 148.4075, "EPHEMERIS_TYPE": 0, "CLASSIFICATION_TYPE": "U", "NORAD_CAT_ID": 65729, "ELEMENT_SET_NO": 999, "REV_AT_EPOCH": 1147, "BSTAR": 0.0011888513, "MEAN_MOTION_DOT": 0.00135201, "MEAN_MOTION_DDOT": 0}, "tle": {"line1": "1 65729U 98067XH  25335.97980384  .00135201  00000+0  11889-2 0  9995", "line2": "2 65729  51.6258 190.6875 0006490 211.6532 148.4075 15.67818176 11475"}}, "geometry": {"type": "Point", "coordinates": [-21.058686777765562, 31.21640278258625]}}, {"type": "Feature", "properties": {"norad_id": 65730, "name": "1998-067XJ", "group": "stations", "lat": 2.960689396291375, "lon": -175.82755500727046, "alt_km": 221.3395465589574, "timestamp": "2025-12-02T13:52:16.082965+00:00", "meta": {"OBJECT_NAME": "1998-067XJ", "OBJECT_ID": "1998-067XJ", "EPOCH": "2025-12-01T20:03:18.917568", "MEAN_MOTION": 16.13832998, "ECCENTRICITY": 0.00107559, "INCLINATION": 51.6109, "RA_OF_ASC_NODE": 185.8826, "ARG_OF_PERICENTER": 242.801, "MEAN_ANOMALY": 117.191, "EPHEMERIS_TYPE": 0, "CLASSIFICATION_TYPE": "U", "NORAD_CAT_ID": 65730, "ELEMENT_SET_NO": 999, "REV_AT_EPOCH": 1152, "BSTAR": 0.0027370981, "MEAN_MOTION_DOT": 0.02710772, "MEAN_MOTION_DDOT": 0.014802185}, "tle": {"line1": "1 65730U 98067XJ  25335.83563562  .02710772  14802-1  27371-2 0  9991", "line2": "2 65730  51.6109 185.8826 0010755 242.8010 117.1910 16.13832998 11527"}}, "geometry": {"type": "Point", "coordinates": [-175.82755500727046, 2.960689396291375]}}, {"type": "Feature", "properties": {"norad_id": 65731, "name": "1998-067XK", "group": "stations", "lat": -0.4461745149583166, "lon": -171.6616553375662, "alt_km": 382.8367514961592, "timestamp": "2025-12-02T13:52:16.082975+00:00", "meta": {"OBJECT_NAME": "1998-067XK", "OBJECT_ID": "1998-067XK", "EPOCH": "2025-12-02T00:03:56.466432", "MEAN_MOTION": 15.6322737, "ECCENTRICITY": 0.00059548, "INCLINATION": 51.629, "RA_OF_ASC_NODE": 191.6009, "ARG_OF_PERICENTER": 184.5035, "MEAN_ANOMALY": 175.5906, "EPHEMERIS_TYPE": 0, "CLASSIFICATION_TYPE": "U", "NORAD_CAT_ID": 65731, "ELEMENT_SET_NO": 999, "REV_AT_EPOCH": 1146, "BSTAR": 0.00092099022, "MEAN_MOTION_DOT": 0.00086466, "MEAN_MOTION_DDOT": 0}, "tle": {"line1": "1 65731U 98067XK  25336.00273688  .00086466  00000+0  92099-3 0  9996", "line2": "2 65731  51.6290 191.6009 0005954 184.5035 175.5906 15.63227370 11463"}}, "geometry": {"type": "Point", "coordinates": [-171.6616553375662, -0.4461745149583166]}}, {"type": "Feature", "properties": {"norad_id": 65732, "name": "RSP-03", "group": "stations", "lat": -42.58255861846342, "lon": 54.91962229851436, "alt_km": 373.09591962780087, "timestamp": "2025-12-02T13:52:16.082986+00:00", "meta": {"OBJECT_NAME": "RSP-03", "OBJECT_ID": "1998-067XL", "EPOCH": "2025-12-02T00:35:43.430208", "MEAN_MOTION": 15.65401132, "ECCENTRICITY": 0.00068166, "INCLINATION": 51.6275, "RA_OF_ASC_NODE": 190.9915, "ARG_OF_PERICENTER": 187.4004, "MEAN_ANOMALY": 172.6892, "EPHEMERIS_TYPE": 0, "CLASSIFICATION_TYPE": "U", "NORAD_CAT_ID": 65732, "ELEMENT_SET_NO": 999, "REV_AT_EPOCH": 1148, "BSTAR": 0.0010736108, "MEAN_MOTION_DOT": 0.00110336, "MEAN_MOTION_DDOT": 0}, "tle": {"line1": "1 65732U 98067XL  25336.02480822  .00110336  00000+0  10736-2 0  9990", "line2": "2 65732  51.6275 190.9915 0006816 187.4004 172.6892 15.65401132 11487"}}, "geometry": {"type": "Point", "coordinates": [54.91962229851436, -42.58255861846342]}}, {"type": "Feature", "properties": {"norad_id": 65733, "name": "GHS-01", "group": "stations", "lat": -27.19649884194346, "lon": 163.2334049675619, "alt_km": 364.25672310864775, "timestamp": "2025-12-02T13:52:16.082996+00:00", "meta": {"OBJECT_NAME": "GHS-01", "OBJECT_ID": "1998-067XM", "EPOCH": "2025-12-01T21:13:00.819264", "MEAN_MOTION": 15.69713992, "ECCENTRICITY": 0.00070578, "INCLINATION": 51.6283, "RA_OF_ASC_NODE": 190.8036, "ARG_OF_PERICENTER": 210.2397, "MEAN_ANOMALY": 149.8194, "EPHEMERIS_TYPE": 0, "CLASSIFICATION_TYPE": "U", "NORAD_CAT_ID": 65733, "ELEMENT_SET_NO": 999, "REV_AT_EPOCH": 1147, "BSTAR": 0.0013342092, "MEAN_MOTION_DOT": 0.00164761, "MEAN_MOTION_DDOT": 0}, "tle": {"line1": "1 65733U 98067XM  25335.88403726  .00164761  00000+0  13342-2 0  9999", "line2": "2 65733  51.6283 190.8036 0007057 210.2397 149.8194 15.69713992 11472"}}, "geometry": {"type": "Point", "coordinates": [163.2334049675619, -27.19649884194346]}}, {"type": "Feature", "properties": {"norad_id": 65941, "name": "YOTSUBA-KULOVER", "group": "stations", "lat": -17.049521485735426, "lon": 176.9197142193031, "alt_km": 398.5210245248518, "timestamp": "2025-12-02T13:52:16.083006+00:00", "meta": {"OBJECT_NAME": "YOTSUBA-KULOVER", "OBJECT_ID": "1998-067XN", "EPOCH": "2025-12-02T00:06:26.525952", "MEAN_MOTION": 15.57616304, "ECCENTRICITY": 0.00022672, "INCLINATION": 51.6288, "RA_OF_ASC_NODE": 193.8589, "ARG_OF_PERICENTER": 162.3434, "MEAN_ANOMALY": 197.7638, "EPHEMERIS_TYPE": 0, "CLASSIFICATION_TYPE": "U", "NORAD_CAT_ID": 65941, "ELEMENT_SET_NO": 999, "REV_AT_EPOCH": 818, "BSTAR": 0.00084730448, "MEAN_MOTION_DOT": 0.00063827, "MEAN_MOTION_DDOT": 0}, "tle": {"line1": "1 65941U 98067XN  25336.00447368  .00063827  00000+0  84730-3 0  9996", "line2": "2 65941  51.6288 193.8589 0002267 162.3434 197.7638 15.57616304  8186"}}, "geometry": {"type": "Point", "coordinates": [176.9197142193031, -17.049521485735426]}}]}